{"type":"FeatureCollection","features":[{"type":"Feature","properties":{"nombre":"\u00c1rea de la ortofoto"},"geometry":{"type":"MultiPolygon","coordinates":[[[[-73.259239,10.419865],[-73.259497,10.420076],[-73.259711,10.420055],[-73.259754,10.419928],[-73.259969,10.419844],[-73.260076,10.419633],[-73.260226,10.419591],[-73.260355,10.418346],[-73.260505,10.418282],[-73.260548,10.41805],[-73.260784,10.417902],[-73.260827,10.417712],[-73.261063,10.417417],[-73.260999,10.417333],[-73.261321,10.417586],[-73.261943,10.416847],[-73.263788,10.418113],[-73.265483,10.416763],[-73.265848,10.417143],[-73.26602,10.417248],[-73.266213,10.417185],[-73.266406,10.417438],[-73.267157,10.4171],[-73.267522,10.417459],[-73.267844,10.417607],[-73.26808,10.418113],[-73.26838,10.418409],[-73.26853,10.418704],[-73.268766,10.418599],[-73.269324,10.419401],[-73.270097,10.419971],[-73.271041,10.42054],[-73.27117,10.420435],[-73.271749,10.420751],[-73.272221,10.420899],[-73.272929,10.421321],[-73.272951,10.421406],[-73.273487,10.421617],[-73.274689,10.422292],[-73.275139,10.422904],[-73.275526,10.422967],[-73.275182,10.423474],[-73.275054,10.423833],[-73.275912,10.424508],[-73.275783,10.424761],[-73.276148,10.425035],[-73.276041,10.425268],[-73.275204,10.426259],[-73.275011,10.42666],[-73.276083,10.428581],[-73.276427,10.429066],[-73.276749,10.429298],[-73.277178,10.429784],[-73.277199,10.430058],[-73.277564,10.430607],[-73.277156,10.431029],[-73.277135,10.431155],[-73.277671,10.433308],[-73.277779,10.433434],[-73.277736,10.433646],[-73.277907,10.434426],[-73.278401,10.435798],[-73.278701,10.435629],[-73.279195,10.435017],[-73.279645,10.435228],[-73.280118,10.434996],[-73.280268,10.435102],[-73.280611,10.434743],[-73.281491,10.435207],[-73.283894,10.436874],[-73.283937,10.437212],[-73.284473,10.437613],[-73.284409,10.437803],[-73.285074,10.438309],[-73.285031,10.438457],[-73.285096,10.43852],[-73.285697,10.438921],[-73.285632,10.439111],[-73.286104,10.439491],[-73.286233,10.43947],[-73.287113,10.438816],[-73.287113,10.4389],[-73.287263,10.438837],[-73.288486,10.439702],[-73.28913,10.440525],[-73.290567,10.43966],[-73.291125,10.440145],[-73.291426,10.44004],[-73.292305,10.441369],[-73.292606,10.441665],[-73.293142,10.442551],[-73.293228,10.442509],[-73.293657,10.443268],[-73.293786,10.443268],[-73.294795,10.444999],[-73.294945,10.445062],[-73.295159,10.445379],[-73.295352,10.4454],[-73.295739,10.446012],[-73.295825,10.446096],[-73.295996,10.446096],[-73.29634,10.446666],[-73.296618,10.446813],[-73.297391,10.447932],[-73.297412,10.44808],[-73.297648,10.448333],[-73.297734,10.448312],[-73.298893,10.449958],[-73.299065,10.450316],[-73.29973,10.451076],[-73.300202,10.451983],[-73.299623,10.452532],[-73.299816,10.453292],[-73.298099,10.45422],[-73.298678,10.454621],[-73.298035,10.455761],[-73.297842,10.456309],[-73.298421,10.457639],[-73.298099,10.457934],[-73.298399,10.458588],[-73.298314,10.458715],[-73.298743,10.45939],[-73.29797,10.460065],[-73.297842,10.460276],[-73.299022,10.461711],[-73.298872,10.461964],[-73.299279,10.462429],[-73.299279,10.462534],[-73.299687,10.462851],[-73.299751,10.462998],[-73.299837,10.462977],[-73.300395,10.46342],[-73.300889,10.46399],[-73.301296,10.464264],[-73.30121,10.46456],[-73.301554,10.465066],[-73.300889,10.465868],[-73.300588,10.466374],[-73.301532,10.467408],[-73.301618,10.467704],[-73.30194,10.468084],[-73.301768,10.468379],[-73.302047,10.46878],[-73.301833,10.46897],[-73.302305,10.469539],[-73.302262,10.469645],[-73.302562,10.46994],[-73.302777,10.469898],[-73.303378,10.470848],[-73.303828,10.471375],[-73.303785,10.471544],[-73.303957,10.471818],[-73.304644,10.472198],[-73.304493,10.472852],[-73.304772,10.473781],[-73.304107,10.474182],[-73.304386,10.474625],[-73.303678,10.475321],[-73.303742,10.475448],[-73.303313,10.475975],[-73.304515,10.477515],[-73.304279,10.477853],[-73.305008,10.478781],[-73.304515,10.479372],[-73.305738,10.480891],[-73.306189,10.481693],[-73.30488,10.482769],[-73.305588,10.483571],[-73.305502,10.48374],[-73.305888,10.484267],[-73.304129,10.485955],[-73.304386,10.486314],[-73.303893,10.486926],[-73.30415,10.487812],[-73.303077,10.488593],[-73.302262,10.489394],[-73.302841,10.490238],[-73.302112,10.490998],[-73.302369,10.491335],[-73.302369,10.491462],[-73.300867,10.493361],[-73.299515,10.49488],[-73.299708,10.495133],[-73.299301,10.495724],[-73.299344,10.495914],[-73.298914,10.496209],[-73.298378,10.4968],[-73.299558,10.497982],[-73.299515,10.498171],[-73.300052,10.498699],[-73.299966,10.498931],[-73.300459,10.499416],[-73.300374,10.499669],[-73.300931,10.500155],[-73.300889,10.500323],[-73.301511,10.500893],[-73.301425,10.500999],[-73.301446,10.501125],[-73.302562,10.502264],[-73.302476,10.502518],[-73.303034,10.503003],[-73.303013,10.50313],[-73.304236,10.504248],[-73.30415,10.504522],[-73.304579,10.505028],[-73.304172,10.505577],[-73.304279,10.505809],[-73.303571,10.506653],[-73.303914,10.507012],[-73.303721,10.50737],[-73.30415,10.507855],[-73.304129,10.507982],[-73.304536,10.508509],[-73.304493,10.508699],[-73.304772,10.509185],[-73.302884,10.511083],[-73.302755,10.511083],[-73.302197,10.511716],[-73.301275,10.512518],[-73.300996,10.512708],[-73.300889,10.512687],[-73.300889,10.512792],[-73.300288,10.512328],[-73.300116,10.512286],[-73.299065,10.513151],[-73.298979,10.513193],[-73.298872,10.513109],[-73.298163,10.513678],[-73.297606,10.513299],[-73.29664,10.514311],[-73.296382,10.514417],[-73.296254,10.514712],[-73.295631,10.514986],[-73.295116,10.514649],[-73.294494,10.513953],[-73.294215,10.513889],[-73.293893,10.51351],[-73.293421,10.513742],[-73.292842,10.513214],[-73.292434,10.513404],[-73.291662,10.512645],[-73.291318,10.51218],[-73.290632,10.512729],[-73.289945,10.512328],[-73.289258,10.511674],[-73.288915,10.511927],[-73.28825,10.511716],[-73.287177,10.510725],[-73.28707,10.510683],[-73.286812,10.510809],[-73.28634,10.510324],[-73.285739,10.510683],[-73.284473,10.51256],[-73.284323,10.51256],[-73.284152,10.512687],[-73.283615,10.513235],[-73.282564,10.512687],[-73.281534,10.513763],[-73.281083,10.513594],[-73.281019,10.513467],[-73.280869,10.513425],[-73.279088,10.512075],[-73.278937,10.512054],[-73.278594,10.512244],[-73.277993,10.511569],[-73.277757,10.511695],[-73.277349,10.511189],[-73.276985,10.511421],[-73.276598,10.511105],[-73.276191,10.511062],[-73.274925,10.51005],[-73.274667,10.510261],[-73.274581,10.51024],[-73.272543,10.508552],[-73.272436,10.508615],[-73.271878,10.508151],[-73.271534,10.508088],[-73.271277,10.507813],[-73.270504,10.508594],[-73.270247,10.508742],[-73.269689,10.508467],[-73.269131,10.508003],[-73.268723,10.508256],[-73.268123,10.507729],[-73.267887,10.507834],[-73.267264,10.507244],[-73.266578,10.507666],[-73.266149,10.507159],[-73.265333,10.507834],[-73.264732,10.507412],[-73.264518,10.507434],[-73.26411,10.507096],[-73.263681,10.507877],[-73.26308,10.507644],[-73.262501,10.508193],[-73.261578,10.507644],[-73.26087,10.508425],[-73.259346,10.507666],[-73.258488,10.508277],[-73.25763,10.508699],[-73.255742,10.506843],[-73.255076,10.506062],[-73.254561,10.506358],[-73.254068,10.505978],[-73.253853,10.505999],[-73.25366,10.505872],[-73.252995,10.504986],[-73.252094,10.505366],[-73.251472,10.504965],[-73.250721,10.504058],[-73.250442,10.503594],[-73.249798,10.503003],[-73.249133,10.502096],[-73.248875,10.502222],[-73.245957,10.498994],[-73.246021,10.498804],[-73.245935,10.498614],[-73.245742,10.498382],[-73.245635,10.498425],[-73.242116,10.493551],[-73.242695,10.492918],[-73.242373,10.492454],[-73.242309,10.49239],[-73.242137,10.492454],[-73.241665,10.491821],[-73.241301,10.49161],[-73.240249,10.490175],[-73.240077,10.490133],[-73.239756,10.489774],[-73.239648,10.4895],[-73.239563,10.489521],[-73.239498,10.489415],[-73.239369,10.489458],[-73.238897,10.488867],[-73.238661,10.488951],[-73.237824,10.488023],[-73.237717,10.487791],[-73.237503,10.487601],[-73.237331,10.487643],[-73.236923,10.487052],[-73.236558,10.486694],[-73.236258,10.486251],[-73.23643,10.486251],[-73.236601,10.486018],[-73.236516,10.485913],[-73.237052,10.485723],[-73.236516,10.485238],[-73.236194,10.485639],[-73.235958,10.485765],[-73.235979,10.485997],[-73.235507,10.48528],[-73.235314,10.485196],[-73.234842,10.484457],[-73.234627,10.484352],[-73.234091,10.483613],[-73.233941,10.483655],[-73.233855,10.48355],[-73.231537,10.480111],[-73.231452,10.480132],[-73.230958,10.479478],[-73.230915,10.479267],[-73.230529,10.478845],[-73.230507,10.478634],[-73.230228,10.478401],[-73.230143,10.478148],[-73.229735,10.478296],[-73.229241,10.477769],[-73.22907,10.477811],[-73.228619,10.477304],[-73.228426,10.477368],[-73.227696,10.476692],[-73.227568,10.476671],[-73.227353,10.476798],[-73.224714,10.473971],[-73.224564,10.473949],[-73.223984,10.473253],[-73.223834,10.473148],[-73.223684,10.473211],[-73.223341,10.472768],[-73.222911,10.472451],[-73.221495,10.470658],[-73.221323,10.470468],[-73.221195,10.470447],[-73.219993,10.468949],[-73.219693,10.468991],[-73.218641,10.467683],[-73.218598,10.467535],[-73.21759,10.466438],[-73.216667,10.465256],[-73.216774,10.465003],[-73.215101,10.462555],[-73.215058,10.462429],[-73.215208,10.46226],[-73.214736,10.461521],[-73.214543,10.461057],[-73.214028,10.461289],[-73.213406,10.460572],[-73.212976,10.460719],[-73.211732,10.45901],[-73.211732,10.458862],[-73.211303,10.458504],[-73.211153,10.458567],[-73.21053,10.457807],[-73.210251,10.457723],[-73.2092,10.456309],[-73.208899,10.45614],[-73.20729,10.453904],[-73.207183,10.453608],[-73.206968,10.453629],[-73.205209,10.451224],[-73.204908,10.45135],[-73.204865,10.451097],[-73.204286,10.450527],[-73.203921,10.449852],[-73.203557,10.449536],[-73.202398,10.447911],[-73.202312,10.447679],[-73.202055,10.447425],[-73.201025,10.445737],[-73.201389,10.445294],[-73.201261,10.44502],[-73.201325,10.44483],[-73.201196,10.44426],[-73.201818,10.443817],[-73.201625,10.443374],[-73.201647,10.443099],[-73.20199,10.442825],[-73.203793,10.441791],[-73.204865,10.441306],[-73.204887,10.441137],[-73.20684,10.439892],[-73.206947,10.439744],[-73.20729,10.439723],[-73.207526,10.440103],[-73.207891,10.439934],[-73.20817,10.439744],[-73.208127,10.439533],[-73.209007,10.439069],[-73.209243,10.438752],[-73.209457,10.438837],[-73.209929,10.438584],[-73.210981,10.437423],[-73.211668,10.437697],[-73.213084,10.437043],[-73.214114,10.436452],[-73.214307,10.436494],[-73.21538,10.435756],[-73.215251,10.435207],[-73.217483,10.434004],[-73.217762,10.433814],[-73.218062,10.433413],[-73.218298,10.433477],[-73.219242,10.432886],[-73.220637,10.431176],[-73.221281,10.431493],[-73.221195,10.43124],[-73.221002,10.43105],[-73.220487,10.430164],[-73.220336,10.429741],[-73.220079,10.429467],[-73.219972,10.429151],[-73.219821,10.429024],[-73.219478,10.428391],[-73.21907,10.427948],[-73.219135,10.427758],[-73.218555,10.427125],[-73.218641,10.426935],[-73.218598,10.426724],[-73.219328,10.426217],[-73.220015,10.425479],[-73.21995,10.425225],[-73.219135,10.424065],[-73.219092,10.423938],[-73.219221,10.423811],[-73.218856,10.422946],[-73.219671,10.422186],[-73.219714,10.422018],[-73.220229,10.421743],[-73.2201,10.42149],[-73.221281,10.420414],[-73.221281,10.420308],[-73.221023,10.420034],[-73.22201,10.419],[-73.221645,10.418282],[-73.224177,10.416446],[-73.224671,10.416172],[-73.225765,10.414969],[-73.22598,10.414969],[-73.226581,10.414188],[-73.227074,10.41442],[-73.227353,10.414294],[-73.227654,10.41461],[-73.229542,10.413407],[-73.230121,10.414104],[-73.230314,10.41404],[-73.231001,10.413259],[-73.231473,10.413492],[-73.232331,10.412985],[-73.232911,10.412479],[-73.233597,10.413006],[-73.234112,10.412626],[-73.234971,10.411782],[-73.236859,10.41307],[-73.239026,10.411613],[-73.239262,10.411487],[-73.239434,10.411571],[-73.239799,10.411423],[-73.240356,10.412014],[-73.240528,10.411972],[-73.240914,10.412521],[-73.241816,10.413281],[-73.243575,10.412246],[-73.244154,10.412647],[-73.244348,10.412647],[-73.244841,10.413386],[-73.245034,10.413534],[-73.245463,10.414272],[-73.245656,10.414272],[-73.246279,10.415222],[-73.246558,10.415096],[-73.247373,10.416298],[-73.247995,10.416024],[-73.248875,10.415454],[-73.249712,10.416109],[-73.25115,10.415201],[-73.251793,10.415686],[-73.251901,10.415665],[-73.252308,10.416235],[-73.253102,10.415771],[-73.253639,10.416066],[-73.254111,10.416573],[-73.254819,10.415855],[-73.25587,10.415074],[-73.25645,10.41537],[-73.257051,10.415961],[-73.25851,10.414695],[-73.258789,10.414906],[-73.259797,10.416045],[-73.259432,10.416341],[-73.259346,10.416573],[-73.259196,10.416488],[-73.25896,10.416868],[-73.258638,10.417164],[-73.258553,10.417143],[-73.258488,10.417333],[-73.257866,10.417881],[-73.257694,10.418177],[-73.257887,10.418303],[-73.257973,10.418514],[-73.258123,10.418535],[-73.258402,10.418831],[-73.25851,10.419084],[-73.258724,10.419169],[-73.258746,10.419295],[-73.259003,10.419464],[-73.259239,10.419865]]]]}}]}