{"type":"FeatureCollection","features":[
{"type":"Feature","properties":{"Nombre":"Comuna 3"},"geometry":{"type":"Polygon","coordinates":[[[-73.2524142522676,10.464113965370535],[-73.24942709607895,10.45836598274321],[-73.24654364121659,10.452935703944316],[-73.2452241422491,10.45034928981555],[-73.24455359518294,10.449120846265743],[-73.24403951490959,10.448091609182852],[-73.24295547770691,10.446066325836362],[-73.24253080895019,10.445344641508855],[-73.2424414092656,10.444890892313177],[-73.24236321647355,10.44243401067138],[-73.24227383975902,10.440430876223406],[-73.24213976219201,10.438115539720243],[-73.24206156134395,10.436499751134953],[-73.24193866063729,10.43449660623747],[-73.24184929804036,10.4318570520096],[-73.2417236405828,10.430644459224137],[-73.25083645512733,10.430641358176244],[-73.2519291370028,10.424534052920142],[-73.2515099662567,10.422838327389577],[-73.2527636399726,10.422654811389759],[-73.25658168511033,10.422340134332169],[-73.25912169865302,10.423926753368852],[-73.25883212464296,10.424495405652287],[-73.2588829705819,10.425319628710573],[-73.25909311868813,10.425700037429372],[-73.26017910755704,10.427910800959852],[-73.26165842718444,10.429074645545114],[-73.26201870343415,10.430637192772387],[-73.26545492462725,10.430635838693798],[-73.26675694460609,10.433210121105336],[-73.2681559126041,10.436512355116227],[-73.26841986147444,10.436782539111263],[-73.26787563326945,10.437487418069022],[-73.26657733380628,10.439094763883366],[-73.26616808948717,10.43966781643082],[-73.26566007970025,10.440688104791834],[-73.26314909047888,10.445199816119088],[-73.26253757806202,10.446513610760617],[-73.26235881877318,10.44663474391949],[-73.26135213818611,10.44832452851126],[-73.26020432357915,10.450373510864955],[-73.25812511243335,10.454181689923837],[-73.25578673361346,10.45837215451495],[-73.25400324307161,10.461603942410175],[-73.25399781316328,10.46159088482284],[-73.25384239688229,10.461922964344108],[-73.25353683988806,10.462852100187996],[-73.25294577031788,10.464802573306489],[-73.25285324709111,10.465010816521751],[-73.2524142522676,10.464113965370535]]]}},
{"type":"Feature","properties":{"Nombre":"Comuna 4"},"geometry":{"type":"Polygon","coordinates":[[[-73.25424617726554,10.462188119397108],[-73.25400324307161,10.461603942410175],[-73.25578673361346,10.45837215451495],[-73.25812511243335,10.454181689923837],[-73.26020432357915,10.450373510864955],[-73.26135213818611,10.44832452851126],[-73.26235881877318,10.44663474391949],[-73.26253757806202,10.446513610760617],[-73.26314909047888,10.445199816119088],[-73.26566007970025,10.440688104791834],[-73.26616808948717,10.43966781643082],[-73.26657733380628,10.439094763883366],[-73.26787563326945,10.437487418069022],[-73.26841986147444,10.436782539111263],[-73.2746670787269,10.443177094605028],[-73.27698595816769,10.442401860688168],[-73.28180133439416,10.440283122427765],[-73.28326567864201,10.442571688290773],[-73.28551952852459,10.44788595151444],[-73.28659443656606,10.452330107330415],[-73.28726401202272,10.457031601205307],[-73.28635427348232,10.457902769234314],[-73.28607572546962,10.458258371818232],[-73.2856139128511,10.458780901642363],[-73.28524005019557,10.459034919522297],[-73.28460958351084,10.459267207946663],[-73.2837738319851,10.459455979533073],[-73.28294540774125,10.459586691280485],[-73.28239556628627,10.459702859854874],[-73.28219029837103,10.459804469642096],[-73.28161854754138,10.460273441291204],[-73.28082299051884,10.460892272552403],[-73.28018654427984,10.461297341255557],[-73.27920911005535,10.46173619291697],[-73.27739945325665,10.462435729966204],[-73.27705090843908,10.462520761692744],[-73.27602038785263,10.462545854971864],[-73.27588399709931,10.462575873297736],[-73.27477755554422,10.462393654707212],[-73.27388410902621,10.462142337144682],[-73.27321182680845,10.462212466001095],[-73.2724192410386,10.462240565208392],[-73.27181065032777,10.462338720911792],[-73.27111713896625,10.46250695363841],[-73.27054747585008,10.462729156243032],[-73.26736304118354,10.464088850238337],[-73.26602131771976,10.46471858223759],[-73.26440077990195,10.465496170311837],[-73.25690306240172,10.469202484701743],[-73.25578478946613,10.466174241756182],[-73.25520635921707,10.464765354884923],[-73.25424617726554,10.462188119397108]]]}},
{"type":"Feature","properties":{"Nombre":"Comuna 5"},"geometry":{"type":"Polygon","coordinates":[[[-73.27047738358827,10.496965884750324],[-73.27010857293392,10.496744694013154],[-73.26884226054368,10.496761540551582],[-73.26806141169612,10.495647986506464],[-73.26770274473517,10.49522437739515],[-73.26662672224006,10.493369646224172],[-73.26587466208044,10.491949961327219],[-73.26537715042564,10.490965338005207],[-73.26249963380155,10.483669908230663],[-73.26200212811129,10.482306848359116],[-73.2609377114714,10.479643666704254],[-73.25934343139713,10.475435279624243],[-73.25877653089393,10.474026399203952],[-73.25827905598999,10.472648343446588],[-73.25727255667263,10.4701856621231],[-73.25690306240172,10.469202484701743],[-73.26440077990195,10.465496170311837],[-73.26602131771976,10.46471858223759],[-73.26736304118354,10.464088850238337],[-73.27054747585008,10.462729156243032],[-73.27111713896625,10.46250695363841],[-73.27181065032777,10.462338720911792],[-73.2724192410386,10.462240565208392],[-73.27321182680845,10.462212466001095],[-73.27388410902621,10.462142337144682],[-73.27477755554422,10.462393654707212],[-73.27588399709931,10.462575873297736],[-73.27602038785263,10.462545854971864],[-73.27705090843908,10.462520761692744],[-73.27739945325665,10.462435729966204],[-73.27920911005535,10.46173619291697],[-73.28018654427984,10.461297341255557],[-73.28082299051884,10.460892272552403],[-73.28161854754138,10.460273441291204],[-73.28219029837103,10.459804469642096],[-73.28239556628627,10.459702859854874],[-73.28294540774125,10.459586691280485],[-73.2837738319851,10.459455979533073],[-73.28460958351084,10.459267207946663],[-73.28524005019557,10.459034919522297],[-73.2856139128511,10.458780901642363],[-73.28607572546962,10.458258371818232],[-73.28635427348232,10.457902769234314],[-73.28726401202272,10.457031601205307],[-73.28756027442151,10.461071565136505],[-73.28752931546263,10.467823173426162],[-73.28899161041511,10.468130689921308],[-73.28747053948081,10.473572077992781],[-73.28802882862561,10.475060545685615],[-73.29035407364447,10.475909759920214],[-73.2931334285082,10.47667361424761],[-73.29361249072929,10.477916412282205],[-73.29138763419519,10.478692659920563],[-73.29214665814133,10.482678104752223],[-73.28655415925627,10.483458229243677],[-73.2850738552741,10.483395309988156],[-73.28507415779534,10.485845077981509],[-73.28541084725653,10.486568711541754],[-73.28445820208846,10.488664582320073],[-73.28404493510928,10.489470483683531],[-73.28351754814149,10.490355247925644],[-73.28292804467665,10.49171684435888],[-73.28165972925176,10.496966607545847],[-73.28117402473845,10.497262374493603],[-73.2707704619243,10.497263337258056],[-73.27047738358827,10.496965884750324]]]}},
{"type":"Feature","properties":{"Nombre":"Comuna 6"},"geometry":{"type":"Polygon","coordinates":[[[-73.26057948620445,10.497157128256102],[-73.26040797279965,10.497088686135655],[-73.2602006307337,10.497105804935982],[-73.26009303978255,10.49709766624855],[-73.25985922655073,10.496870154460943],[-73.25978637019264,10.496767092072057],[-73.25965188567585,10.496641124170488],[-73.25966505494401,10.496526198733367],[-73.25968837575667,10.496474241847581],[-73.25966927809034,10.496430093765193],[-73.2596692720224,10.496278061228935],[-73.25942573028377,10.496047667559331],[-73.25904709839556,10.495533995004145],[-73.25915914504817,10.495417499087543],[-73.25893647827682,10.495220192149837],[-73.2588120131799,10.495146610173773],[-73.25846442701294,10.495091314785975],[-73.25841454161542,10.495007121377652],[-73.25839692857089,10.49484596571377],[-73.25831084880721,10.494682162095167],[-73.25818933835251,10.4943783696837],[-73.2581301508409,10.49412036817648],[-73.25808074325234,10.493817254278026],[-73.25804444659352,10.493683547737751],[-73.25766264109257,10.491195634557913],[-73.25758416458149,10.490903212052359],[-73.25744991146459,10.49071664291578],[-73.25618832082607,10.489800369023271],[-73.25505829997374,10.488945640392785],[-73.25377088823345,10.48802227617706],[-73.2535071995688,10.487857857732733],[-73.25319588376101,10.487703705092686],[-73.25284203881655,10.48756831429355],[-73.25258228881937,10.487450405209719],[-73.25152879607225,10.487068122961338],[-73.25084643856091,10.486749548422509],[-73.25031687333801,10.486393092696538],[-73.2498223043041,10.486110350084306],[-73.24971829887164,10.486030425224275],[-73.24947140249037,10.485906431796394],[-73.24892174751704,10.485699498678676],[-73.24874863932467,10.485507798105925],[-73.24851725472007,10.48531277080436],[-73.2481702649568,10.485060446049308],[-73.24788100464605,10.484796549613565],[-73.24762639207401,10.484532606835085],[-73.24738344416491,10.484326106063216],[-73.2470827399757,10.484119687594019],[-73.24685138438502,10.483936149776413],[-73.24611125497628,10.483466048205022],[-73.24581047060028,10.483213657472211],[-73.24550321967577,10.482999381230252],[-73.24520777031886,10.482706642173282],[-73.24497142112183,10.482413903848071],[-73.24434111127081,10.48190569392334],[-73.24408509759967,10.481594231854036],[-73.24378965049597,10.481360037857623],[-73.24339225824593,10.480987705160345],[-73.24313968967523,10.480657464980219],[-73.2429714412344,10.480479834000393],[-73.24346641790613,10.480209778860528],[-73.24454326872377,10.47955961889281],[-73.24516486422398,10.479204198615225],[-73.24585302830981,10.478837585224074],[-73.24686858855523,10.47817008807719],[-73.24774406242467,10.477563266169604],[-73.24826059803338,10.47718183085567],[-73.24959131898814,10.476297597533073],[-73.25024445034904,10.47588587160676],[-73.25294616133196,10.474100040566997],[-73.25496845566222,10.47274111181687],[-73.2569119535358,10.47147597544916],[-73.25762060975289,10.471042986731108],[-73.25827905598999,10.472648343446588],[-73.25877653089393,10.474026399203952],[-73.25934343139713,10.475435279624243],[-73.2609377114714,10.479643666704254],[-73.26200212811129,10.482306848359116],[-73.26249963380155,10.483669908230663],[-73.26537715042564,10.490965338005207],[-73.26587466208044,10.491949961327219],[-73.26662672224006,10.493369646224172],[-73.26770274473517,10.49522437739515],[-73.26806141169612,10.495647986506464],[-73.26884226054368,10.496761540551582],[-73.26831573587876,10.496768543938657],[-73.26827131513133,10.496790813443695],[-73.2681438641369,10.496769061724166],[-73.2679735044321,10.496796845596283],[-73.26780682124105,10.496774409818567],[-73.26736535554274,10.496603629556121],[-73.26723455386808,10.49652625860884],[-73.26693201901139,10.496418058590786],[-73.26678743463927,10.496286123153219],[-73.26675669986355,10.49628478729956],[-73.2664889842418,10.496122122153805],[-73.26634497636778,10.495995519698837],[-73.26584334561912,10.495743667460719],[-73.26567922564477,10.495645471648892],[-73.26536122056852,10.495596205643547],[-73.26506351145547,10.495618054200424],[-73.26471447394516,10.495668951761218],[-73.26463889702191,10.495737933918182],[-73.2645016695647,10.495793495105886],[-73.26435578810138,10.495785529311597],[-73.26384403881808,10.495706327799102],[-73.26376823779447,10.495868644443592],[-73.26366653181242,10.496016811579095],[-73.26360790719507,10.496151599792091],[-73.26350263383425,10.496311763513047],[-73.26320895992447,10.496449708206551],[-73.26293333854892,10.496606834381316],[-73.26258803126258,10.496720093035663],[-73.26250475325337,10.496785694776115],[-73.26218111692693,10.496920385910878],[-73.26191923519247,10.496973293761245],[-73.26173173570558,10.496990977060342],[-73.26143186879807,10.496965053769989],[-73.26132962380244,10.496982786729493],[-73.26096650949923,10.496997865159644],[-73.26077082654989,10.497032308374193],[-73.2606773225237,10.497012947904981],[-73.26057948620445,10.497157128256102]]]}},
{"type":"Feature","properties":{"Nombre":"Comuna 1"},"geometry":{"type":"Polygon","coordinates":[[[-73.23268126787987,10.465144332896077],[-73.23387758360961,10.465021532849157],[-73.2361939686318,10.464860688125418],[-73.23701008683115,10.464771376157882],[-73.24218852907434,10.464395010285939],[-73.24315981753874,10.464290488124682],[-73.24717483060667,10.464007034730189],[-73.24881122829453,10.46387118580816],[-73.25216290057918,10.463625823407773],[-73.25280669246824,10.4649157074455],[-73.25283649859692,10.465048510806655],[-73.25294577031788,10.464802573306489],[-73.25353683988806,10.462852100187996],[-73.25384239688229,10.461922964344108],[-73.25400324307161,10.461603942410175],[-73.25424617726554,10.462188119397108],[-73.25520635921707,10.464765354884923],[-73.25578478946613,10.466174241756182],[-73.25727255667263,10.4701856621231],[-73.25762060975289,10.471042986731108],[-73.2569119535358,10.47147597544916],[-73.25496845566222,10.47274111181687],[-73.25294616133196,10.474100040566997],[-73.25024445034904,10.47588587160676],[-73.24959131898814,10.476297597533073],[-73.24826059803338,10.47718183085567],[-73.24774406242467,10.477563266169604],[-73.24686858855523,10.47817008807719],[-73.24585302830981,10.478837585224074],[-73.24516486422398,10.479204198615225],[-73.24454326872377,10.47955961889281],[-73.24346641790613,10.480209778860528],[-73.2429714412344,10.480479834000393],[-73.24272607800933,10.480130531255236],[-73.2420775260493,10.47931271106787],[-73.24189886045922,10.479018107248132],[-73.24160341744991,10.478783910595439],[-73.24150523664392,10.478646042770364],[-73.2413673440783,10.478491471744938],[-73.24123413808651,10.478277988040647],[-73.24107187258937,10.47796793363985],[-73.24087491119967,10.477634945349735],[-73.24053151206616,10.476728266072435],[-73.24010322860389,10.47620029477127],[-73.23992942383686,10.475924688203097],[-73.23967467210441,10.475568798658603],[-73.23914228540355,10.474983465156418],[-73.23888758875644,10.474662045731675],[-73.23781563705283,10.473393353810803],[-73.23762069899051,10.472927865017244],[-73.23693065710535,10.471941226303818],[-73.23650260365622,10.471562591429418],[-73.23485478689166,10.4699302264513],[-73.23583348139223,10.46921381615485],[-73.23268126787987,10.465144332896077]]]}},
{"type":"Feature","properties":{"Nombre":"Comuna 2"},"geometry":{"type":"Polygon","coordinates":[[[-73.24172363692996,10.430644459214585],[-73.24184929804036,10.4318570520096],[-73.24193866063729,10.43449660623747],[-73.24206156134395,10.436499751134953],[-73.24213976219201,10.438115539720243],[-73.24227383975902,10.440430876223406],[-73.24236321647355,10.44243401067138],[-73.2424414092656,10.444890892313177],[-73.24253080895019,10.445344641508855],[-73.24295547770691,10.446066325836362],[-73.24403951490959,10.448091609182852],[-73.24455359518294,10.449120846265743],[-73.2452241422491,10.45034928981555],[-73.24654364121659,10.452935703944316],[-73.24942709607895,10.45836598274321],[-73.25216290057918,10.463625823407773],[-73.24881122829453,10.46387118580816],[-73.24717483060667,10.464007034730189],[-73.24315981753874,10.464290488124682],[-73.24218852907434,10.464395010285939],[-73.23701008683115,10.464771376157882],[-73.2361939686318,10.464860688125418],[-73.23387758360961,10.465021532849157],[-73.23268126787987,10.465144332896077],[-73.23583348139223,10.46921381615485],[-73.23485478689166,10.4699302264513],[-73.23469045811025,10.46976738397543],[-73.23433595343845,10.469474632803575],[-73.23376009756136,10.468750924953067],[-73.23333153260161,10.468362187578256],[-73.23274069378124,10.468010869896696],[-73.23197259960381,10.467366815078305],[-73.23173627655983,10.467015520632721],[-73.2314408651436,10.466722768905642],[-73.23108635533497,10.46648855970922],[-73.23081034049589,10.4662842878327],[-73.23049553439947,10.465903046830332],[-73.23020012244208,10.465493201970475],[-73.22966425910954,10.46481490779252],[-73.22914318110321,10.464068656895774],[-73.2289329497375,10.463721350726907],[-73.22704042651934,10.461328041409091],[-73.2256430628763,10.459944768654166],[-73.2240175042857,10.456708188344095],[-73.22482154201467,10.452631014848437],[-73.22399118760897,10.442171611054125],[-73.23033879388686,10.4371407803588],[-73.22740794655132,10.43495755811308],[-73.24172363692996,10.430644459214585]]]}},
{"type":"Feature","properties":{"Nombre":null},"geometry":{"type":"Polygon","coordinates":[[[-73.24287733047159,10.47843439550633],[-73.24287733413027,10.478510139008092],[-73.24234798460105,10.478510165210128],[-73.24234798107098,10.478434421718296],[-73.24287733047159,10.47843439550633]]]}},
{"type":"Feature","properties":{"Nombre":null},"geometry":{"type":"Polygon","coordinates":[[[-73.24268269919894,10.478313026714586],[-73.24268270281266,10.478388770213275],[-73.24215335351502,10.47838879610748],[-73.24215335002991,10.47831305261872],[-73.24268269919894,10.478313026714586]]]}}
]}
