{"type":"FeatureCollection","features":[
{"type":"Feature","properties":{"Nombre":"Perimetro Urbano Principal 2023","SUELO":"SUELO URBANO 14092023"},"geometry":{"type":"Polygon","coordinates":[[[-73.27922850139574,10.505726621400832],[-73.27884903020984,10.505741303321853],[-73.27803252901597,10.504939206417694],[-73.27781893671039,10.503475973062384],[-73.27776178605636,10.503324097981801],[-73.27755580279288,10.50291678958916],[-73.27740339526142,10.502726663747794],[-73.27727562421114,10.502625296206068],[-73.27660308288472,10.502199298482646],[-73.27636072911419,10.502089479564011],[-73.27616674976016,10.50203190989858],[-73.27577270026308,10.501839605189279],[-73.27522775218436,10.501657914971425],[-73.27495434204086,10.501550466392072],[-73.27471605048582,10.50150367873315],[-73.27472809675282,10.501441411093289],[-73.27490237636316,10.50105781993886],[-73.27471100554651,10.500790799223935],[-73.27498278780614,10.500523725778088],[-73.27493790350131,10.50054646601093],[-73.27475978633832,10.500331306061364],[-73.27537197093721,10.499704235153008],[-73.27539693838384,10.499645484952973],[-73.27553623408411,10.499560473357436],[-73.2758134364448,10.499249156353116],[-73.27498006036971,10.498516406659178],[-73.27474027561684,10.498091187562054],[-73.27429354094403,10.497724865943578],[-73.27411612257659,10.497852241702207],[-73.27382527872614,10.497622489838381],[-73.27380752642625,10.49763591701545],[-73.27351516841698,10.497337275646466],[-73.27348398450732,10.497262579156203],[-73.27077267471279,10.49726279686993],[-73.27074195686399,10.497231620930647],[-73.26999719269028,10.496813675123247],[-73.26916300484422,10.496920988577829],[-73.2690140801415,10.496957968617378],[-73.26927555505712,10.497395193661957],[-73.27009457861753,10.498425748978232],[-73.2705037512281,10.499072572809546],[-73.27103295956984,10.500030635211319],[-73.27127259089097,10.500820535207037],[-73.27141292590626,10.501189537753978],[-73.27128218023036,10.501229340988237],[-73.27125833401443,10.501196988353914],[-73.27112856547845,10.501118467962693],[-73.27109029019483,10.501109230612247],[-73.27098666836625,10.501120326073984],[-73.27096613103335,10.501125871392999],[-73.27088865495713,10.50120717962877],[-73.27083264400935,10.501235824744395],[-73.27069915197312,10.501273711543556],[-73.27068794803755,10.501264474203639],[-73.27063940780211,10.501302357987916],[-73.27060300084348,10.501308828422935],[-73.27057032452157,10.50128388586263],[-73.27056939552124,10.501332850484198],[-73.27053765527941,10.501339320111338],[-73.27053298542447,10.501301442183868],[-73.2704975120034,10.501315302331946],[-73.27046390412134,10.50130791456278],[-73.27043309799542,10.501328241004588],[-73.27039855647234,10.50131808105067],[-73.27033865557905,10.501327907004757],[-73.26957387051444,10.501512723744035],[-73.26830704328398,10.50189740156875],[-73.26777147363966,10.502134854445547],[-73.26745905248262,10.502184566913742],[-73.26739024728764,10.502228740817733],[-73.26725449264175,10.502245313459179],[-73.26719498753211,10.502300530593857],[-73.26711316308696,10.502300536968354],[-73.26699599928425,10.50224533007764],[-73.26692905034287,10.502265579285584],[-73.26688069912824,10.502261902324745],[-73.26667612588885,10.502107317060547],[-73.26659801493494,10.50202450356432],[-73.26649200087189,10.501844148678364],[-73.26644754407782,10.50171034606289],[-73.26643843897293,10.501520467465449],[-73.26626599439759,10.501231769602093],[-73.2660971359474,10.501040898977848],[-73.26596557287083,10.500819260693314],[-73.2657931051528,10.500607307972526],[-73.26553709486517,10.500390041368098],[-73.26535090993654,10.500261330056027],[-73.2650728592041,10.499948943967434],[-73.26353220744645,10.49927943772989],[-73.26168436280051,10.498903969474357],[-73.26057045826268,10.498468110771313],[-73.2595072296483,10.497600066001214],[-73.2584994783205,10.496910590683411],[-73.2577631294931,10.49662167790742],[-73.25705003668324,10.496679632253217],[-73.25660019608274,10.496836323596565],[-73.25632388116917,10.497108277365806],[-73.25589080118256,10.497179720365233],[-73.25558652548354,10.497202042801387],[-73.25524846655036,10.497093538428091],[-73.25504377138452,10.496817952698658],[-73.25463495120815,10.49605152293616],[-73.25397207740268,10.495397545972805],[-73.25310380051013,10.494737553331085],[-73.25208570288352,10.4936167507656],[-73.25200784335313,10.4933594313188],[-73.2520086994759,10.493036542700503],[-73.25195465611026,10.492910834087098],[-73.25166547759687,10.49259915175451],[-73.25112952348935,10.49193403694237],[-73.25080471510242,10.491389061613964],[-73.25066646986248,10.491119627047846],[-73.25017171775933,10.49086720168361],[-73.24849362054042,10.490300761291913],[-73.24739478083232,10.490016859782891],[-73.24708098095789,10.489878512581829],[-73.24681006121907,10.489519039064223],[-73.24675664435657,10.489160131865985],[-73.24635932991004,10.488620942171904],[-73.24536447016821,10.487864928130564],[-73.24492389365109,10.487690371951425],[-73.2444416980213,10.487264566406866],[-73.24406833394465,10.48680915085141],[-73.24344780794378,10.486149783894609],[-73.24320716322273,10.486039265128168],[-73.24286861443971,10.485849291742396],[-73.24265839917445,10.485546948647967],[-73.24273106911562,10.485322739355649],[-73.24289390860793,10.485078362027956],[-73.24289505671149,10.485000279369826],[-73.24284098625505,10.48488652727813],[-73.24262408180641,10.484664718363204],[-73.24236102502726,10.484538929890338],[-73.24152011161266,10.484051913925452],[-73.24110414207617,10.483715972540407],[-73.24071897615516,10.483158870255773],[-73.240593388883,10.482680183578237],[-73.24068474950171,10.48240536861232],[-73.24081194209535,10.482286114016553],[-73.24089655702346,10.482274378687032],[-73.24097564087742,10.482071285506994],[-73.24089774472799,10.481831902500817],[-73.24076532822653,10.481646191755013],[-73.24033715220038,10.481358050624548],[-73.23989046666915,10.481213368590751],[-73.23940811099891,10.480853331335336],[-73.23868440263814,10.480379049003991],[-73.23838822555201,10.480245723330045],[-73.23823812188003,10.480084878669437],[-73.23781027259818,10.47967714808658],[-73.23725068845155,10.478832384728797],[-73.23705828128134,10.47849123261498],[-73.2369986888865,10.478186121999086],[-73.2370304102445,10.477624137731834],[-73.23700788884658,10.477014175331805],[-73.23694837725404,10.476679168564532],[-73.23672658781939,10.476319854674168],[-73.2366096203745,10.476184758139393],[-73.2356646879878,10.475515763602122],[-73.23481388704711,10.475130828430125],[-73.23418162888153,10.47435780683114],[-73.23379033221626,10.47384253735105],[-73.23359844795861,10.473309859290564],[-73.23346726880344,10.472669710902768],[-73.23348644448694,10.472281096710795],[-73.23358997166578,10.471976419754432],[-73.23380873679791,10.471504624201106],[-73.23339306887426,10.471067022908326],[-73.23288679805906,10.470623202001988],[-73.23245226185158,10.47046060454184],[-73.23207781675315,10.470417754952281],[-73.23145549964784,10.470440019997282],[-73.23088735994676,10.470534181886853],[-73.230445729288,10.47076022588486],[-73.23000537741679,10.47081653113372],[-73.22976897635678,10.47080626021016],[-73.22951548534995,10.470715894689082],[-73.22912959137719,10.470439812369557],[-73.22888245241788,10.470235853357382],[-73.22866582826916,10.469918365557684],[-73.22866662526032,10.469625376295912],[-73.22873975540962,10.469392372377582],[-73.22908506605337,10.469040504595045],[-73.22919436047646,10.468837494960399],[-73.22925500309823,10.4684445098164],[-73.22919582326018,10.46829934897928],[-73.22902717328046,10.468113537671298],[-73.22872569703036,10.467897474329497],[-73.22827902069727,10.467758756662928],[-73.22797704081655,10.467728055287099],[-73.22761461622542,10.467709150191716],[-73.22723397012433,10.467726073063552],[-73.22687099156963,10.467910466244426],[-73.22610342989502,10.468028004735586],[-73.22577741614124,10.467949400450962],[-73.22551800238156,10.467817160277107],[-73.22515688437475,10.467319900877886],[-73.2250434743738,10.466817325068995],[-73.22497734649507,10.46669755938972],[-73.22424874822666,10.465822610990992],[-73.22387529156273,10.465420988715792],[-73.22377378546928,10.464984219559385],[-73.22328138677945,10.46389464199028],[-73.22301038720366,10.463582985951145],[-73.22283588111783,10.46333138102749],[-73.22270358298402,10.463109787306562],[-73.22240812397051,10.462905694351807],[-73.2220159270292,10.462731237796902],[-73.2215391207163,10.462568513184578],[-73.2212678453292,10.462358505312102],[-73.2210993162904,10.462130834814161],[-73.22104552158416,10.461921409202565],[-73.22114992531776,10.461299828934308],[-73.22108412792801,10.461060474818627],[-73.22094582419078,10.46082690658949],[-73.22075323061581,10.460563294348155],[-73.22030111920681,10.460209291945592],[-73.22016875662554,10.460011614566184],[-73.22013911025873,10.4598082344831],[-73.2201821031849,10.459551234286147],[-73.22025515266692,10.459348130328834],[-73.22040655718465,10.459211010209094],[-73.22065463323223,10.459068170915293],[-73.22102359549687,10.458901738769859],[-73.22120541683829,10.458686967088978],[-73.22122408100337,10.458489695672128],[-73.22123146540103,10.457999402898434],[-73.22108753020306,10.457616331068646],[-73.2208888813997,10.457358683439123],[-73.22040627297484,10.457112228638591],[-73.21962155144824,10.456888879798784],[-73.21903027156381,10.45661821514028],[-73.21815528209436,10.45626905234735],[-73.21782984236381,10.455987142221407],[-73.21763715733088,10.455759403342682],[-73.21757131414931,10.455537987066936],[-73.21762701617219,10.455053803871941],[-73.21779147084307,10.454563934877095],[-73.21776786667259,10.454360570948795],[-73.21767193495707,10.45409721594829],[-73.21740104780588,10.453749679388558],[-73.21696101411206,10.453401686410242],[-73.21666616080873,10.452982330783126],[-73.21646789735719,10.452587152988015],[-73.21634184592385,10.452293821958262],[-73.21595065462371,10.451760596040492],[-73.21570355537717,10.451550649584211],[-73.21551032855069,10.451520229573143],[-73.21545000208286,10.4514901703487],[-73.21524553576639,10.451154769481375],[-73.21521599014264,10.45091551247809],[-73.21524784459127,10.450317655638068],[-73.21528440347502,10.450204144721212],[-73.21538146805833,10.450054922135957],[-73.21539389675202,10.449929388233112],[-73.21535190770469,10.449821643976634],[-73.215153268353,10.44956399342206],[-73.21499054489058,10.449426026613283],[-73.21456799897767,10.449311274634892],[-73.21394529618932,10.449488973077747],[-73.21358903606824,10.449434193457684],[-73.21332960996557,10.449313902526722],[-73.21316199225045,10.449207705329584],[-73.21295265614583,10.449105007320206],[-73.21278402927346,10.448917991935762],[-73.21265439336628,10.44861149542382],[-73.21249176431267,10.448003544431003],[-73.21258496075983,10.447506309377617],[-73.21263846339266,10.447382081991709],[-73.21260525642779,10.447157166444539],[-73.21227257166449,10.44687881894835],[-73.21201694589217,10.4466963512623],[-73.21130750169908,10.446350012928184],[-73.21100785244171,10.446358767355237],[-73.21075094201797,10.446640297693346],[-73.21063481331689,10.44669260084496],[-73.21043184329001,10.446692049581793],[-73.21026255417614,10.446744209995297],[-73.21015090010876,10.446925679425984],[-73.21007294007705,10.447155078646993],[-73.20988376521946,10.447408091073376],[-73.20951053594516,10.447808894285254],[-73.2091184273978,10.448047004562854],[-73.20875058932707,10.448246911575984],[-73.20841693675561,10.448317755168492],[-73.20812697641576,10.448316965469365],[-73.207998751133,10.448291218144044],[-73.20830322813744,10.447293336292299],[-73.21000402069201,10.445661993611942],[-73.21106331769535,10.445320456367757],[-73.21145571273692,10.444977105225819],[-73.21206529462626,10.444734799150494],[-73.2128784014969,10.444292132981468],[-73.21623268507528,10.442378212568158],[-73.21801921595909,10.441177572782555],[-73.21961714606621,10.440019466305365],[-73.22040143055703,10.439504949458644],[-73.22103948233007,10.439449258409367],[-73.22186545396406,10.43959497828047],[-73.22270572539959,10.439812488394118],[-73.22382421316392,10.440194164657541],[-73.22383221175899,10.439890349451618],[-73.22368216443154,10.437630267265694],[-73.22368797012163,10.437140994367931],[-73.22710019083699,10.43478839868005],[-73.2289204496638,10.43372177910389],[-73.2303996175626,10.432831059854278],[-73.23456052975479,10.430262924295604],[-73.23431913739778,10.429838949470811],[-73.23497621021465,10.429437328616649],[-73.23592493115306,10.428868111382574],[-73.23721289587326,10.428449548817206],[-73.23736677828775,10.428897709193565],[-73.23965771554434,10.428191392717556],[-73.24135389388003,10.428108819971927],[-73.24134249597634,10.427863508370416],[-73.24157613370741,10.427871606009163],[-73.24127298882652,10.420785615338962],[-73.24404780125988,10.421412019835225],[-73.24449158226938,10.422801189928967],[-73.24753955515413,10.422735522342732],[-73.24919679919736,10.422658111873233],[-73.25032188890813,10.422617709440681],[-73.25034791839097,10.422633039601772],[-73.25524119772959,10.422281055215842],[-73.25848430794532,10.422021930000529],[-73.25894296053116,10.422000030477111],[-73.26027766052826,10.423991428330483],[-73.26069921348667,10.423994090632917],[-73.26123799504529,10.42394387819286],[-73.26221689335952,10.423906047827542],[-73.2644351317075,10.423888153113488],[-73.26671029193352,10.423905880520335],[-73.26798604165269,10.423936165223692],[-73.26945471655785,10.423991923906357],[-73.27017935179236,10.427849888357693],[-73.27028609825098,10.428350149754628],[-73.2711159706257,10.433019479245171],[-73.27118250532047,10.433289986368147],[-73.27047592836212,10.434120023170719],[-73.26836957535077,10.436731068034938],[-73.27057097125282,10.438984427323012],[-73.2706979670322,10.438929728737245],[-73.27089017202844,10.439287282698766],[-73.27105710471842,10.43964922218834],[-73.27382301387357,10.442480706208801],[-73.27435975989681,10.443052192538271],[-73.27703425961714,10.442090196240008],[-73.27922675509355,10.441415937311598],[-73.28133012463873,10.440490456908666],[-73.28153515632154,10.440880941647594],[-73.28207173716427,10.440701733718411],[-73.28326567772646,10.442571689192482],[-73.28375688239629,10.443729894173371],[-73.28618633491837,10.445082151549268],[-73.28685940842499,10.445513847175024],[-73.29170914769038,10.448757812861453],[-73.29388686598007,10.450271199084504],[-73.29404154270127,10.450393730690406],[-73.29347946359407,10.451092060996313],[-73.29323692531261,10.451450237303485],[-73.29252817562059,10.452225834373063],[-73.29209337255813,10.452596384055871],[-73.29210047868403,10.452737856207046],[-73.2920630695259,10.452762838101531],[-73.29207153577845,10.45542371375185],[-73.29203458242522,10.45812932316278],[-73.2920445264049,10.459758462106114],[-73.29282948611238,10.460673016651542],[-73.29413019652111,10.462966277644936],[-73.29448612535552,10.46330999155942],[-73.29500117275519,10.463742622724569],[-73.29536091492751,10.463963763089275],[-73.29554777036772,10.464140362385821],[-73.29585457878011,10.464577458713105],[-73.29601316907804,10.46513136212682],[-73.29610211556246,10.4668407980879],[-73.29656346512019,10.469592558761528],[-73.29655570082804,10.469754584573385],[-73.29636532074484,10.470235452096185],[-73.29632596876516,10.47055086276551],[-73.29630800692625,10.47120785983491],[-73.29632969719795,10.47141393699564],[-73.29643232896322,10.471653393639873],[-73.29630203907624,10.472140593445278],[-73.29627285361305,10.472550655996706],[-73.29635182357094,10.472933398582565],[-73.29632318490343,10.473308169769544],[-73.2963555521221,10.474320000642185],[-73.29633425165892,10.474709512179427],[-73.29643387081165,10.475113957776411],[-73.29644838642287,10.476083141513064],[-73.29656833731602,10.47682065612812],[-73.29659978475122,10.477568214790594],[-73.29688907767016,10.478886497391173],[-73.29693499235783,10.479495908441642],[-73.296825661944,10.48073623204905],[-73.29660816845414,10.481642749359068],[-73.29533831258767,10.48208909777132],[-73.29431478031425,10.482117084296972],[-73.29326322113762,10.482259014089061],[-73.29296231532904,10.482282661010565],[-73.29271828152687,10.482260428545898],[-73.29200868821832,10.482306316877452],[-73.292092881013,10.482722687823568],[-73.29252329743252,10.48312256471937],[-73.29276454820146,10.48328759006332],[-73.29322523790908,10.483822370772737],[-73.29377516673466,10.48454754842085],[-73.29260954345746,10.484631167343416],[-73.29377636568667,10.490340573056997],[-73.2885966726391,10.491482020019848],[-73.2886616592057,10.491757297321492],[-73.28834510487232,10.49182091266721],[-73.28789381364012,10.4916230744071],[-73.2825703469196,10.492810196021226],[-73.28219869408285,10.49459214451904],[-73.28221572324625,10.494665285275792],[-73.28213846623345,10.494985065136396],[-73.28258250515005,10.496745950060538],[-73.2827516141954,10.497182946030707],[-73.28275469758039,10.49738695452628],[-73.28281194827211,10.49768128921583],[-73.28292331099145,10.498079802627496],[-73.28296616875794,10.498121337690685],[-73.28295086686563,10.498247345850604],[-73.28299412704233,10.498914755017447],[-73.28312830488346,10.499182008769527],[-73.2834129568011,10.499197543972953],[-73.28368270248563,10.499183383691232],[-73.28404197446494,10.499317734923531],[-73.28428126491941,10.499496275002985],[-73.28446024433238,10.499822956123484],[-73.28442866414846,10.500460524048966],[-73.28432013915999,10.501898663613233],[-73.28400570234056,10.501808913295093],[-73.28366137363489,10.501689426371568],[-73.28310943285247,10.50156194936653],[-73.28312377177059,10.502122888738334],[-73.28346298081837,10.50344073270082],[-73.28330459378483,10.504065385143168],[-73.28324179944,10.504534565878277],[-73.28306176513445,10.50458146990378],[-73.28295126062154,10.504626444237338],[-73.28275265758106,10.504757055005392],[-73.28259860572452,10.50492878468078],[-73.28237918078787,10.505247151534341],[-73.282308156611,10.50537331652711],[-73.28202242190815,10.505601796419858],[-73.28160621250333,10.506022402088233],[-73.28149521610005,10.506042302586991],[-73.28111416132836,10.506044186407193],[-73.28073310556839,10.506034703054581],[-73.28026244818095,10.50600200501402],[-73.27979525192487,10.505851830347067],[-73.2793469230564,10.505742353761445],[-73.27922850139574,10.505726621400832]]]}},
{"type":"Feature","properties":{"Nombre":"Perimetro Urbano Secundadario 2023","SUELO":"SUELO URBANO 14092023"},"geometry":{"type":"MultiPolygon","coordinates":[[[[-73.28330459378483,10.504065385143168],[-73.283362381836,10.503837479293953],[-73.2833615326124,10.50384345251817],[-73.28330459378483,10.504065385143168]]],[[[-73.28330459378483,10.504065385143168],[-73.28320504990033,10.504815272795163],[-73.28310988562129,10.505175667268697],[-73.28300038521937,10.505409597963759],[-73.2827608069302,10.505734397127743],[-73.28277934937567,10.505853617802947],[-73.28288008016077,10.5060850769629],[-73.28295406594042,10.506203331720593],[-73.28279542873968,10.506407256260443],[-73.28252130928263,10.506681624817809],[-73.28241475828652,10.506768024906002],[-73.28214075789188,10.506919535403146],[-73.28183518729948,10.506979027569882],[-73.28162815087265,10.506995541499748],[-73.28115401206581,10.506973719026417],[-73.28089109905619,10.506942793076385],[-73.28038200939879,10.506921939418602],[-73.27959678669183,10.506834241035044],[-73.27937388363858,10.506791010823358],[-73.27921925146931,10.506714116877228],[-73.27905437791371,10.50666207748392],[-73.27879677000466,10.506633242339566],[-73.27852859666557,10.506569073461044],[-73.27767229852482,10.506264042646293],[-73.27743085790192,10.506059968132789],[-73.27720904159713,10.505835135906214],[-73.27700783436526,10.505596262383886],[-73.27690079582005,10.505391606994799],[-73.27684770775122,10.505167231601058],[-73.27684402978703,10.505013426512688],[-73.27692873083791,10.50452829160428],[-73.27695083566486,10.504267299147074],[-73.27695251460408,10.50400539640269],[-73.27690581813233,10.503819291953002],[-73.276831702854,10.503642117536218],[-73.27673181292387,10.503477805999836],[-73.2766083659432,10.50333000506899],[-73.27653864590552,10.503263336637078],[-73.27637124104449,10.503148789925037],[-73.27594052605735,10.5028836419606],[-73.27575558695804,10.502806086943567],[-73.27483586872624,10.502505627919124],[-73.27452910464847,10.502452397880573],[-73.27438401866081,10.5025053118622],[-73.27428185902467,10.502506420332859],[-73.274138171724,10.502552507229659],[-73.27388130071522,10.502591477177978],[-73.27373222488485,10.502585634438972],[-73.27348671329993,10.502503041525397],[-73.27320512236032,10.502492766186064],[-73.27315822911787,10.50247625277241],[-73.27291701830652,10.502332192183424],[-73.27277931116119,10.502200687876186],[-73.27276708463887,10.502124149117392],[-73.2727196425862,10.502073356989554],[-73.27267056143094,10.501983538426272],[-73.27263377074911,10.501817738607233],[-73.27259904093214,10.5017581494678],[-73.27256482558106,10.501744024790291],[-73.27244139630939,10.501749264227229],[-73.27238878604673,10.501735575632638],[-73.27233769905371,10.501717078080821],[-73.27227153072992,10.501634928036049],[-73.2721462556064,10.501613295376648],[-73.27209451246357,10.501567058283358],[-73.27206434666098,10.501497798095873],[-73.27199331413823,10.501474673947262],[-73.27198139987674,10.50141520046579],[-73.27191645412654,10.501374578859144],[-73.27185491628153,10.501383737425991],[-73.27179314468331,10.50135547768962],[-73.27153503556498,10.501152362126751],[-73.27141292590626,10.501189537753978],[-73.27127259089097,10.500820535207037],[-73.27103295956984,10.500030635211319],[-73.2705037512281,10.499072572809546],[-73.27009457861753,10.498425748978232],[-73.26927555505712,10.497395193661957],[-73.2690140801415,10.496957968617378],[-73.26916300484422,10.496920988577829],[-73.26999719269028,10.496813675123247],[-73.27074195686399,10.497231620930647],[-73.27077267471279,10.49726279686993],[-73.27348398450732,10.497262579156203],[-73.27351516841698,10.497337275646466],[-73.27380752642625,10.49763591701545],[-73.27382527872614,10.497622489838381],[-73.27411612257659,10.497852241702207],[-73.27429354094403,10.497724865943578],[-73.27474027561684,10.498091187562054],[-73.27498006036971,10.498516406659178],[-73.2758134364448,10.499249156353116],[-73.27553623408411,10.499560473357436],[-73.27539693838384,10.499645484952973],[-73.27537197093721,10.499704235153008],[-73.27475978633832,10.500331306061364],[-73.27493790350131,10.50054646601093],[-73.27498278780614,10.500523725778088],[-73.27471100554651,10.500790799223935],[-73.27490237636316,10.50105781993886],[-73.27472809675282,10.501441411093289],[-73.27471605048582,10.50150367873315],[-73.27495434204086,10.501550466392072],[-73.27522775218436,10.501657914971425],[-73.27577270026308,10.501839605189279],[-73.27616674976016,10.50203190989858],[-73.27636072911419,10.502089479564011],[-73.27660308288472,10.502199298482646],[-73.27727562421114,10.502625296206068],[-73.27740339526142,10.502726663747794],[-73.27755580279288,10.50291678958916],[-73.27776178605636,10.503324097981801],[-73.27781893671039,10.503475973062384],[-73.27803252901597,10.504939206417694],[-73.27884903020984,10.505741303321853],[-73.27916876465763,10.505724535770648],[-73.2793469230564,10.505742353761445],[-73.27979525192487,10.505851830347067],[-73.28026244818095,10.50600200501402],[-73.28073310556839,10.506034703054581],[-73.28111416132836,10.506044186407193],[-73.28149521610005,10.506042302586991],[-73.28160621250333,10.506022402088233],[-73.28202242190815,10.505601796419858],[-73.282308156611,10.50537331652711],[-73.28237918078787,10.505247151534341],[-73.28259860572452,10.50492878468078],[-73.28275265758106,10.504757055005392],[-73.28295126062154,10.504626444237338],[-73.28306176513445,10.50458146990378],[-73.28324179944,10.504534565878277],[-73.28330459378483,10.504065385143168]]]]}}
]}
