{"type":"FeatureCollection","features":[
{"type":"Feature","properties":{"Nombre":"UIT_07"},"geometry":{"type":"Polygon","coordinates":[[[-73.27935682001126,10.482871103811155],[-73.27919084477057,10.481840239763278],[-73.27914905465394,10.481172822082526],[-73.27915424856039,10.480701769641087],[-73.27874802049504,10.480715922655746],[-73.27829499806947,10.47856180063317],[-73.2754501032438,10.47990658939767],[-73.2723536041915,10.481152072994394],[-73.27213695890356,10.480752935282165],[-73.2710768666176,10.478641039722406],[-73.2701385384382,10.478892558246024],[-73.26694301120274,10.479889924511053],[-73.26562273606935,10.480321933244486],[-73.26517664242628,10.48051980297079],[-73.2634792558489,10.48121425028755],[-73.26337042214013,10.481227267502515],[-73.26175638709363,10.481889797210378],[-73.25953259307485,10.47614896111155],[-73.25900883510992,10.4745694046338],[-73.25811681333265,10.47223366881452],[-73.2570891144826,10.46960119393584],[-73.25691707131153,10.469195446434231],[-73.26372793422644,10.465784432235365],[-73.26652034646474,10.464460668666463],[-73.26843522313432,10.463661888402727],[-73.27096657141163,10.462553758568115],[-73.27242477570873,10.462293973095464],[-73.27380949756976,10.462322581289659],[-73.27473748147854,10.462476319166443],[-73.27521858411079,10.462448214795273],[-73.27559209708826,10.462510331718889],[-73.27709768396569,10.46250304174464],[-73.27775049359593,10.46225709762083],[-73.27909839266981,10.461717290176193],[-73.28029516137705,10.461219503494773],[-73.28193262512102,10.45994928650389],[-73.28244023911353,10.459625659187791],[-73.28382465822811,10.459373069183638],[-73.28487660014565,10.459210542097255],[-73.28555343463971,10.458802971806314],[-73.28626009939401,10.457958484559208],[-73.28725637978435,10.456978060692308],[-73.28744387910236,10.45688859817737],[-73.28833016812736,10.456223908500927],[-73.28947979041033,10.455494246141113],[-73.2899339108815,10.455076796847825],[-73.29022168171721,10.454748633811244],[-73.29060051132588,10.454241307271577],[-73.29100943297637,10.453778903143458],[-73.29161494628066,10.45321233317914],[-73.29206306952818,10.452762837197564],[-73.2920715357807,10.455423712847884],[-73.29203458242523,10.45812932316281],[-73.29207776031781,10.465035686883068],[-73.2920740101365,10.467878613889132],[-73.29335139226083,10.468114501712625],[-73.29356188618763,10.468208123487136],[-73.2943421024008,10.468748891108056],[-73.29649968890703,10.46957073736393],[-73.29648813212049,10.469518653631209],[-73.29653589179813,10.469505129504638],[-73.29657293747256,10.469518807304462],[-73.29659564223074,10.469612623069937],[-73.29665633247365,10.469633634141076],[-73.29682999430982,10.469649487292713],[-73.29714443753528,10.474477876994076],[-73.29753837105977,10.481314475954253],[-73.29730064537054,10.48141333209057],[-73.29565516925581,10.481969767003601],[-73.29533514815154,10.482104578952544],[-73.29431478031427,10.482117084297075],[-73.29322693393469,10.482263911956563],[-73.29296231532904,10.482282661010613],[-73.29271828152687,10.482260428545983],[-73.29199391025908,10.482321692503564],[-73.29169321371697,10.482383670574542],[-73.29126652673466,10.482556539288657],[-73.28914230420098,10.48259584027805],[-73.28824276792274,10.482933872785564],[-73.288116265433,10.482690336805327],[-73.28529309588758,10.482897356305504],[-73.28522346983577,10.482697208737566],[-73.28448068688671,10.482743563302757],[-73.28393245129445,10.482808801854128],[-73.2822889404542,10.482864127135235],[-73.28109980414712,10.482887440478947],[-73.2810641231452,10.482386669123576],[-73.28018575791795,10.482759821545109],[-73.27939324333505,10.483029069806893],[-73.27935682001126,10.482871103811155]]]}},
{"type":"Feature","properties":{"Nombre":"UIT_02"},"geometry":{"type":"Polygon","coordinates":[[[-73.23197437108708,10.446479096261298],[-73.23275678017656,10.447708981897856],[-73.23281315974084,10.447679863868121],[-73.2328208256617,10.447691814132144],[-73.23289716655357,10.447815260635686],[-73.23287550873077,10.44791050493126],[-73.23456578965707,10.449250675295342],[-73.23377238822722,10.45076132338846],[-73.23353742478831,10.45095036270139],[-73.23360334537621,10.451102581003308],[-73.23480751560281,10.451004596832794],[-73.23503346690329,10.451795289257053],[-73.23509551251163,10.452290785232638],[-73.23509974560258,10.453533541767882],[-73.23618208291232,10.453522844580435],[-73.23621791870848,10.45623445135406],[-73.23571973795892,10.456297061846781],[-73.23530867282084,10.456421849240234],[-73.23424257493895,10.457085749988305],[-73.23290197233977,10.456141133054896],[-73.23256301469475,10.455662596178174],[-73.23228691076052,10.455143316481696],[-73.23188252767274,10.454494858030719],[-73.2315217921376,10.453997184385777],[-73.23142097267083,10.453782111758306],[-73.23128053088844,10.4535928818113],[-73.23129915993376,10.453524646819115],[-73.23057399122423,10.452706447827921],[-73.23034780904698,10.452503596537523],[-73.23004214960814,10.45207291111026],[-73.2295639256692,10.451310192859067],[-73.22905231926522,10.450444456564101],[-73.22890799639275,10.450249946672505],[-73.22882825456459,10.450220699785657],[-73.22869130134657,10.450270285284489],[-73.22807165869544,10.449163388242951],[-73.22805417138973,10.449165068198493],[-73.22804239798994,10.44914452894828],[-73.22589551697205,10.449358290940266],[-73.2258120715479,10.449380452254966],[-73.22553687349243,10.449406887651731],[-73.2244058815946,10.447886563316832],[-73.22425053891527,10.445554569499482],[-73.22586981036027,10.444717117663926],[-73.22585274198708,10.443865338312857],[-73.2266916456302,10.44324058602255],[-73.2270176398564,10.443518349305325],[-73.22708268556455,10.44339301741964],[-73.22806055216788,10.444250944769049],[-73.22868573678181,10.448478813091512],[-73.23197437108708,10.446479096261298]]]}},
{"type":"Feature","properties":{"Nombre":"UIT_04"},"geometry":{"type":"Polygon","coordinates":[[[-73.25276143843183,10.46538762378487],[-73.25571194094627,10.466926622424278],[-73.25583784469663,10.467089307612389],[-73.25592029115755,10.46734778426835],[-73.25629809932789,10.467548064642063],[-73.25668332410811,10.468644173911802],[-73.2570891144826,10.469601193935826],[-73.25811681333266,10.47223366881453],[-73.25900883510992,10.474569404633781],[-73.25953259307484,10.476148961111532],[-73.26015310624695,10.477728437391127],[-73.26204810294894,10.48265742490074],[-73.26263589297186,10.484123211244723],[-73.26336920640087,10.48604970371105],[-73.26501140002942,10.490106018342441],[-73.26483017544754,10.49032760603924],[-73.26488475205109,10.49050710385279],[-73.2651147202955,10.490716379336824],[-73.26526835862587,10.490765326353694],[-73.26590806773004,10.492093412045078],[-73.26686008050724,10.49373004850608],[-73.26706008563983,10.494252949735001],[-73.26844669502931,10.49634645200598],[-73.2687663058441,10.496280964634979],[-73.26884510844047,10.496407161294554],[-73.26909391260787,10.496537417319695],[-73.26922268774894,10.496755964529317],[-73.26920919281332,10.49698019277015],[-73.2690857143439,10.497077752429663],[-73.26927555505712,10.497395193661962],[-73.27009457861753,10.498425748978253],[-73.2705037512281,10.499072572809558],[-73.27103295956984,10.500030635211328],[-73.27127259089096,10.500820535207067],[-73.27141292590625,10.501189537754017],[-73.2712821802303,10.501229340988237],[-73.27125833401438,10.50119698835395],[-73.27112856547845,10.501118467962721],[-73.27109029110589,10.501109231518566],[-73.27098666836625,10.501120326074027],[-73.27096613103336,10.501125871393006],[-73.2708886549571,10.501207179628825],[-73.27083264401168,10.501235823840481],[-73.27069915197076,10.501273712447583],[-73.27068794803756,10.501264474203696],[-73.27063940688869,10.501302357985672],[-73.27060300084348,10.501308828423007],[-73.27057032452159,10.501283885862655],[-73.27056939552122,10.501332850484252],[-73.27053765527943,10.501339320111347],[-73.27053298542447,10.501301442183937],[-73.27049751200337,10.501315302332001],[-73.27046390412134,10.501307914562847],[-73.27043309799541,10.501328241004598],[-73.27039855647236,10.501318081050675],[-73.27033865557907,10.501327907004832],[-73.26957386960103,10.501512723741754],[-73.26830704328404,10.501897401568783],[-73.26777147363964,10.502134854445611],[-73.26755203421966,10.502164316181299],[-73.26745905248265,10.502184566913803],[-73.26739024728764,10.50222874081773],[-73.26725449172832,10.502245313456879],[-73.26719498753215,10.50230053059391],[-73.26711316217354,10.502300536966064],[-73.26699599928423,10.502245330077622],[-73.2669290503405,10.50226558018957],[-73.26688069912825,10.502261902324795],[-73.26667612588648,10.502107317964603],[-73.26659801493496,10.502024503564334],[-73.26653849877357,10.501934325776713],[-73.26649200087189,10.50184414867836],[-73.26644754407549,10.501710346966878],[-73.26643843897287,10.501520467465506],[-73.2662659943999,10.501231768698187],[-73.26609713686081,10.50104089898018],[-73.26596557287077,10.50081926069337],[-73.2657931042394,10.50060730797025],[-73.26553709486515,10.500390041368115],[-73.26535091084997,10.500261330058436],[-73.2650728592041,10.499948943967507],[-73.26353220744645,10.499279437729877],[-73.26168436280054,10.49890396947442],[-73.26057045826272,10.498468110771386],[-73.25950722964832,10.497600066001255],[-73.25849947832049,10.496910590683457],[-73.2577631294931,10.496621677907466],[-73.25705003668324,10.496679632253292],[-73.25660019608274,10.49683632359659],[-73.25632388116914,10.497108277365836],[-73.25589080118256,10.497179720365287],[-73.25558652548357,10.49720204280141],[-73.25524846655034,10.497093538428132],[-73.25504377138455,10.496817952698672],[-73.25463495120816,10.496051522936202],[-73.25397207740271,10.495397545972862],[-73.25310380051016,10.494737553331058],[-73.2520857028835,10.493616750765707],[-73.25200784335313,10.493359431318808],[-73.25200869947588,10.493036542700573],[-73.25195465611024,10.492910834087153],[-73.25166547759687,10.492599151754561],[-73.25112952348935,10.491934036942427],[-73.25080471510238,10.491389061614028],[-73.2506664698625,10.491119627047905],[-73.25017171775934,10.490867201683644],[-73.24849362054042,10.490300761291937],[-73.24739478083232,10.490016859782953],[-73.2470809809579,10.489878512581814],[-73.24681006121902,10.489519039064248],[-73.24675664435654,10.489160131866038],[-73.24635932991004,10.488620942171933],[-73.24536447016821,10.487864928130614],[-73.24492389365108,10.487690371951395],[-73.24444169802126,10.487264566406923],[-73.24406833394468,10.486809150851478],[-73.24344780794377,10.48614978389464],[-73.24320716322272,10.48603926512822],[-73.2428686144397,10.485849291742413],[-73.24265839917446,10.485546948648045],[-73.24273106911565,10.485322739355702],[-73.24289390860793,10.485078362028007],[-73.24289505671152,10.485000279369835],[-73.24284098625505,10.484886527278153],[-73.24262408180641,10.48466471836324],[-73.24236102502725,10.484538929890416],[-73.24152011161269,10.484051913925494],[-73.24110414207615,10.483715972540386],[-73.24071897615515,10.48315887025585],[-73.24059338888303,10.482680183578314],[-73.24068474950174,10.482405368612374],[-73.24081194209532,10.482286114016587],[-73.24089655702346,10.482274378687062],[-73.24097564087737,10.482071285507024],[-73.24089774472795,10.481831902500849],[-73.24076532822656,10.48164619175501],[-73.24033715220034,10.481358050624554],[-73.23989046666912,10.481213368590785],[-73.23940811099891,10.480853331335336],[-73.23868440263811,10.480379049004064],[-73.23838822555201,10.48024572333011],[-73.23823812188002,10.48008487866948],[-73.23781027259815,10.479677148086585],[-73.23725068845157,10.478832384728804],[-73.23705828128134,10.478491232615015],[-73.23699868888647,10.478186121999132],[-73.23703041024451,10.47762413773189],[-73.23701495485308,10.477205549149451],[-73.23733942783517,10.477038243433897],[-73.23803353953568,10.476524072919663],[-73.23840469240457,10.476298072882425],[-73.2390835244713,10.475838820127207],[-73.23941414086468,10.476437050905556],[-73.23956405198749,10.476371105424924],[-73.23975308311918,10.476327473640948],[-73.24011473877378,10.476083979146965],[-73.24013599365095,10.476045022070346],[-73.2405716833467,10.47645644682279],[-73.24369495253758,10.474228926262375],[-73.24642063508244,10.472425406770203],[-73.24817936664614,10.471322839760168],[-73.2516556147103,10.469043498375756],[-73.25203180694038,10.467654410576808],[-73.252724968065,10.465427519598114],[-73.25276143843183,10.46538762378487]]]}},
{"type":"Feature","properties":{"Nombre":"UIT_06"},"geometry":{"type":"Polygon","coordinates":[[[-73.28725637978435,10.456978060692308],[-73.28626009939401,10.457958484559208],[-73.28555343463971,10.458802971806314],[-73.28487660014565,10.459210542097255],[-73.28382465822811,10.459373069183638],[-73.28244023911353,10.459625659187791],[-73.28193262512102,10.45994928650389],[-73.28029516137705,10.461219503494773],[-73.27909839266981,10.461717290176193],[-73.27775049359593,10.46225709762083],[-73.27709768396569,10.46250304174464],[-73.27559209708826,10.462510331718889],[-73.27521858411079,10.462448214795273],[-73.27473748147854,10.462476319166443],[-73.27380949756976,10.462322581289659],[-73.27242477570873,10.462293973095464],[-73.27096657141163,10.462553758568115],[-73.26843522313432,10.463661888402727],[-73.26652034646474,10.464460668666463],[-73.26372793422644,10.465784432235365],[-73.25691707131153,10.469195446434231],[-73.25668332410812,10.468644173911805],[-73.25629809932792,10.467548064642067],[-73.25592029115754,10.467347784268346],[-73.25583784469663,10.467089307612394],[-73.25571194094624,10.466926622424305],[-73.25276143843182,10.465387623784874],[-73.25293520436011,10.465197536852715],[-73.25289145928946,10.464939028613289],[-73.25294199484433,10.46462299155971],[-73.2539229914855,10.461588304093054],[-73.25963777100038,10.451238009946549],[-73.26195012782424,10.447185612516318],[-73.2621603512557,10.446962805629918],[-73.2624288022403,10.446958994179623],[-73.26279513022752,10.44686892092443],[-73.26286376183312,10.44651695858508],[-73.26275835493401,10.446276456672011],[-73.26256470821683,10.446077920854375],[-73.26361388175286,10.444102872421908],[-73.26488897367992,10.441897019252425],[-73.26583089381371,10.440388068595608],[-73.26642246721546,10.43927440403123],[-73.26821028007433,10.437130351804758],[-73.26836957535072,10.436731068035023],[-73.2705709712505,10.438984428227108],[-73.270697966119,10.438929728734989],[-73.27089017111291,10.439287283600459],[-73.2710571047184,10.439649222188407],[-73.2738230138736,10.442480706208867],[-73.27435975989678,10.443052192538303],[-73.27703425961717,10.44209019624006],[-73.27922675509355,10.441415937311685],[-73.28133012463874,10.440490456908732],[-73.28153515632151,10.440880941647658],[-73.28207173716426,10.44070173371846],[-73.28317606527891,10.442431639133927],[-73.2835169393113,10.443164136986514],[-73.28369504718356,10.443584097335256],[-73.28384025476154,10.443577321798063],[-73.29403171509932,10.450550586207857],[-73.2939464891214,10.450709906589795],[-73.29319239805194,10.451718167066291],[-73.29284663395133,10.451952280602336],[-73.29201890296058,10.452712604862437],[-73.29100944462152,10.453778906389532],[-73.29060055260736,10.454241264025846],[-73.29022167805576,10.454748642211099],[-73.2899339108815,10.455076796847825],[-73.28947979041033,10.455494246141113],[-73.28833017280837,10.456223914612757],[-73.28744387910236,10.45688859817737],[-73.28725637978435,10.456978060692308]]]}},
{"type":"Feature","properties":{"Nombre":"UIT_05"},"geometry":{"type":"Polygon","coordinates":[[[-73.24157613370743,10.427871606009214],[-73.24130659492843,10.421567737802725],[-73.24429035603191,10.422185444434211],[-73.24449158226936,10.42280118992901],[-73.24753955515416,10.422735522342784],[-73.24919679828412,10.422658111870906],[-73.2503249088281,10.422617717249073],[-73.2503509383111,10.422633047409931],[-73.25524421765006,10.422281062977602],[-73.25848732786581,10.42202193773143],[-73.25894296053114,10.422000030477175],[-73.26027766052823,10.423991428330526],[-73.26069921348663,10.42399409063297],[-73.26123799504764,10.423943877288933],[-73.26221689336191,10.42390604692357],[-73.26443513170749,10.423888153113534],[-73.26671029193355,10.423905880520381],[-73.26798604165036,10.423936166127753],[-73.26945471564464,10.423991923904074],[-73.2701793517924,10.427849888357686],[-73.27028609825098,10.428350149754662],[-73.27111596789068,10.433019477430344],[-73.27118250532047,10.43328998636818],[-73.2704759283621,10.43412002317079],[-73.26836957535073,10.436731068034993],[-73.26821028007434,10.437130351804752],[-73.26642246721548,10.439274404031192],[-73.26583089381371,10.440388068595611],[-73.26488897367992,10.441897019252412],[-73.26361388175287,10.444102872421908],[-73.26256470821683,10.446077920854359],[-73.26275835493401,10.446276456671999],[-73.26286376183313,10.446516958585047],[-73.26279513022752,10.446868920924418],[-73.2624288022403,10.446958994179605],[-73.26216035125572,10.446962805629894],[-73.26195012782424,10.447185612516298],[-73.2596377710004,10.45123800994655],[-73.25392299148551,10.461588304093052],[-73.25294199484433,10.464622991559711],[-73.25289145928946,10.46493902861328],[-73.25290019809768,10.46499066998773],[-73.25211034261017,10.46355285892409],[-73.2430357546414,10.446279494807728],[-73.24311530660479,10.44594667925288],[-73.243006262083,10.445673855299788],[-73.24248344338247,10.4451284388334],[-73.24233088354353,10.44487719295176],[-73.24235651890875,10.443627546653431],[-73.24221027955087,10.44216736557047],[-73.24201246128173,10.436553768590414],[-73.24185259175303,10.433094671417606],[-73.24157613370743,10.427871606009214]]]}},
{"type":"Feature","properties":{"Nombre":"UIT_01"},"geometry":{"type":"Polygon","coordinates":[[[-73.28356025758048,10.503474968879008],[-73.28337767455503,10.503842330519449],[-73.28339580083056,10.503916870959477],[-73.28334490449932,10.503908264583462],[-73.28330459378478,10.504065385143237],[-73.28320504990035,10.504815272795232],[-73.28310988562129,10.50517566726875],[-73.28300038521938,10.505409597963844],[-73.28276080601675,10.505734397125488],[-73.28277934937567,10.505853617803066],[-73.2828800792473,10.506085076960733],[-73.28295406594036,10.506203331720611],[-73.28270866543552,10.506503149931905],[-73.28242117427321,10.506763770545875],[-73.28214075789188,10.506919535403197],[-73.28183518638595,10.506979027567644],[-73.28162815087262,10.506995541499768],[-73.28115401115004,10.506973719928121],[-73.2808910990562,10.506942793076385],[-73.28038200848302,10.506921940320407],[-73.27948479794885,10.506815333841262],[-73.27937388363858,10.506791010823477],[-73.279219251467,10.50671411778124],[-73.27905437791138,10.506662078387897],[-73.27879677000463,10.506633242339566],[-73.27852859666555,10.506569073461112],[-73.27767229852483,10.50626404264636],[-73.2773173792767,10.505950035131962],[-73.27705446146028,10.505657891573943],[-73.27696649807677,10.505531039629203],[-73.27690079490428,10.505391607896543],[-73.27684770775122,10.505167231601126],[-73.27685180676028,10.504936823478669],[-73.27691005511818,10.50465796089895],[-73.27694233121356,10.504398007457116],[-73.27695251460403,10.504005396402736],[-73.27693267345046,10.503911482030764],[-73.27687209897077,10.503729337298621],[-73.27678485323936,10.503558119571329],[-73.27667287396582,10.503401626836169],[-73.27653864590549,10.503263336637197],[-73.27602903187925,10.502930713430606],[-73.27584926218533,10.502842047076363],[-73.2747348895668,10.502481126026126],[-73.27452910464842,10.502452397880642],[-73.27438401866084,10.502505311862302],[-73.27428185902464,10.502506420332875],[-73.27413817172398,10.50255250722974],[-73.2738813007152,10.502591477177978],[-73.27373222488487,10.502585634439072],[-73.2734867132999,10.502503041525449],[-73.27320512236034,10.502492766186199],[-73.27315822911784,10.502476252772428],[-73.27291701830654,10.502332192183507],[-73.27277931116114,10.502200687876186],[-73.2727670846389,10.502124149117424],[-73.27271964258617,10.50207335698962],[-73.27267056051521,10.501983539327968],[-73.27263377074914,10.501817738607334],[-73.27259904092979,10.501758150371808],[-73.27256482558103,10.50174402479034],[-73.27244139630939,10.501749264227309],[-73.27238878513093,10.501735576534402],[-73.2723376990537,10.501717078080873],[-73.27227153072991,10.501634928036136],[-73.27214625469058,10.501613296278325],[-73.27209451155018,10.501567058281127],[-73.27206434666098,10.501497798095855],[-73.27199331413586,10.501474674851336],[-73.27198139987672,10.501415200465821],[-73.27191645412654,10.501374578859144],[-73.27185491628154,10.501383737426027],[-73.27179314468329,10.501355477689753],[-73.27153503464919,10.501152363028458],[-73.27141292590625,10.501189537754012],[-73.27127259089096,10.500820535207138],[-73.27103295956984,10.500030635211338],[-73.2705037512281,10.499072572809633],[-73.27009457861753,10.49842574897825],[-73.26927555505713,10.497395193661957],[-73.26908571434387,10.497077752429723],[-73.26920919281332,10.496980192770195],[-73.2692226877489,10.496755964529289],[-73.26909391260787,10.49653741731975],[-73.26884510844047,10.496407161294544],[-73.2687663058441,10.496280964634982],[-73.2684466950293,10.496346452006039],[-73.2670600856398,10.494252949734998],[-73.26686008050723,10.493730048506139],[-73.26590806773004,10.492093412045117],[-73.26526835862586,10.490765326353687],[-73.2651147202955,10.490716379336837],[-73.26488475205109,10.490507103852815],[-73.26483017544754,10.490327606039246],[-73.26501140002942,10.490106018342441],[-73.26336920640087,10.48604970371109],[-73.26263589297186,10.484123211244714],[-73.26204810294891,10.482657424900784],[-73.26175638709363,10.481889797210416],[-73.26337042214013,10.481227267502515],[-73.2634792558489,10.481214250287586],[-73.26517664242628,10.48051980297079],[-73.26562273606933,10.480321933244486],[-73.26694301120274,10.479889924511053],[-73.27013853843819,10.478892558246024],[-73.2710768666176,10.478641039722406],[-73.27213695890356,10.480752935282165],[-73.2723536041915,10.481152072994394],[-73.2754501032438,10.47990658939767],[-73.27829499806947,10.47856180063317],[-73.27874802049504,10.48071592265578],[-73.27915424856039,10.480701769641087],[-73.27914905465394,10.481172822082526],[-73.27919084477057,10.481840239763278],[-73.27935682001126,10.482871103811155],[-73.27939324333505,10.483029069806893],[-73.28018575791795,10.482759821545157],[-73.2810641231452,10.482386669123613],[-73.28109980414712,10.482887440478947],[-73.2822889404542,10.482864127135267],[-73.28393245129445,10.482808801854128],[-73.2844806868867,10.482743563302757],[-73.28522346983577,10.482697208737566],[-73.28529309588757,10.482897356305536],[-73.288116265433,10.482690336805327],[-73.28824276792274,10.482933872785564],[-73.28914230420098,10.48259584027805],[-73.29126652673465,10.482556539288689],[-73.29169321371697,10.482383670574578],[-73.2925232974325,10.483122564719435],[-73.29276454820143,10.483287590063387],[-73.29293005719981,10.48354211865297],[-73.29326155589416,10.483856851668609],[-73.29342691538596,10.484171176917778],[-73.29371329381706,10.484411056319548],[-73.29392359022953,10.484874973330154],[-73.2940585930403,10.48524901910129],[-73.29422343396305,10.485772623794723],[-73.29426445750714,10.4874918123328],[-73.29430868638468,10.487925430331313],[-73.29450343703597,10.488568695133251],[-73.29468390471986,10.488883057022381],[-73.29511098081356,10.489907248627564],[-73.29521615228259,10.490131733031776],[-73.29527722782323,10.490200579013857],[-73.2951928136903,10.490831121453489],[-73.29509751703816,10.491247061724057],[-73.29493718397998,10.491576737151792],[-73.29469702785102,10.49193491743464],[-73.29430325350275,10.492432091095342],[-73.29384050489524,10.49289017908199],[-73.29373425265463,10.49285643123102],[-73.29366873515188,10.492961509689934],[-73.2937653085809,10.493000016606345],[-73.29358824864585,10.493253110794416],[-73.2931028062234,10.494084262606027],[-73.29303517447096,10.494069744418352],[-73.29299620606508,10.494189238570417],[-73.29304693220027,10.494198931774234],[-73.29263345834559,10.495240739103654],[-73.29231253655767,10.495998149672776],[-73.29220818152257,10.49617010153485],[-73.29213553959602,10.496224932897706],[-73.2921644457832,10.496263275367676],[-73.29229735553318,10.49626838459241],[-73.2922842153324,10.496686919357478],[-73.29199547675505,10.498097372601592],[-73.29188114492725,10.498391281690614],[-73.29182772975409,10.498489214465828],[-73.29116671370477,10.498977899496008],[-73.29107768484931,10.498822211291124],[-73.29103671404422,10.498776665965066],[-73.29096167571325,10.498824316211802],[-73.29077116068153,10.498661201203232],[-73.29039846323512,10.49889998620939],[-73.2903256892055,10.498971031872824],[-73.29046237131982,10.49844039048233],[-73.29049139650981,10.498430894510003],[-73.29001953971715,10.497152650188902],[-73.28968260953336,10.496647620112553],[-73.28786611783738,10.498022239998969],[-73.28731082366427,10.498376766266025],[-73.28692053618552,10.498657554055178],[-73.28649139321688,10.499034650561738],[-73.2864242102774,10.49884313910289],[-73.28618162459905,10.499092271149319],[-73.2859299117839,10.498983240021943],[-73.28570866499311,10.498913111316872],[-73.28538078036975,10.49871398949487],[-73.28509567127139,10.498571945975666],[-73.28452795705836,10.49832192363601],[-73.28433363834638,10.498252405897087],[-73.28372937123777,10.49794666669483],[-73.28344288739231,10.498457797264582],[-73.28326393096931,10.498869778980097],[-73.28310930864541,10.49914417233184],[-73.28312830488349,10.49918200876961],[-73.28341295680104,10.499197543972986],[-73.2836827024856,10.499183383691284],[-73.28404197446488,10.499317734923599],[-73.28428126491941,10.499496275003088],[-73.28446024433237,10.499822956123518],[-73.28444446161734,10.500141591731106],[-73.28463231787748,10.500206783641792],[-73.2848104287137,10.500494244005118],[-73.2848676634092,10.500795754447855],[-73.28482306605571,10.501181193217956],[-73.28452806753855,10.501591062886567],[-73.28442001568565,10.502217136116489],[-73.28382951589202,10.502236459358649],[-73.28363081982458,10.502167509759811],[-73.28347933552229,10.502338738216244],[-73.28356025758048,10.503474968879008]]]}},
{"type":"Feature","properties":{"Nombre":"UIT_03"},"geometry":{"type":"Polygon","coordinates":[[[-73.23660962037448,10.476184758139466],[-73.23566468798782,10.475515763602255],[-73.23481388704712,10.475130828430153],[-73.23418162888152,10.474357806831181],[-73.23379033221629,10.473842537351159],[-73.23359844795858,10.4733098592906],[-73.23346726880345,10.47266971090286],[-73.23348644448697,10.472281096710876],[-73.23358997166577,10.471976419754508],[-73.23380873679788,10.471504624201268],[-73.23339306887428,10.471067022908406],[-73.23288679805906,10.470623202002075],[-73.23245226185156,10.47046060454196],[-73.23207781675316,10.470417754952395],[-73.23145549964784,10.470440019997413],[-73.23088735994672,10.470534181887004],[-73.23044572928798,10.47076022588494],[-73.23000537741679,10.470816531133794],[-73.22976897635674,10.470806260210264],[-73.22951548534992,10.470715894689157],[-73.22912959137719,10.470439812369618],[-73.22888245241786,10.47023585335745],[-73.22866582826914,10.46991836555773],[-73.22866662526032,10.469625376295998],[-73.22873975540965,10.469392372377648],[-73.22908506605334,10.469040504595018],[-73.22919436047644,10.468837494960438],[-73.22925500309817,10.468444509816434],[-73.22919582326016,10.468299348979404],[-73.22902717328043,10.468113537671405],[-73.22872569703034,10.467897474329575],[-73.22827902069729,10.467758756663013],[-73.22761461622547,10.467709150191816],[-73.22723397012436,10.467726073063643],[-73.22687099156965,10.467910466244556],[-73.226103429895,10.468028004735665],[-73.22577741614116,10.467949400451046],[-73.22551800238153,10.467817160277104],[-73.22541564460279,10.467691317076325],[-73.22515688437475,10.46731990087794],[-73.2250434743738,10.466817325069028],[-73.22497734649505,10.46669755938982],[-73.2242487482266,10.465822610991017],[-73.22387529156269,10.465420988715824],[-73.22377378546928,10.464984219559478],[-73.22328138677939,10.463894641990352],[-73.22301038720366,10.463582985951167],[-73.22283588111776,10.463331381027592],[-73.22270358298402,10.463109787306616],[-73.22240812397045,10.462905694351877],[-73.2220159270292,10.462731237796929],[-73.22153912071627,10.462568513184676],[-73.22126784532912,10.462358505312135],[-73.2210993162904,10.46213083481423],[-73.22104552158413,10.46192140920259],[-73.22114992531777,10.461299828934317],[-73.22108412792797,10.461060474818616],[-73.22094582419074,10.460826906589595],[-73.22075323061583,10.460563294348228],[-73.22030111920678,10.460209291945672],[-73.22016875662553,10.460011614566303],[-73.22013911025873,10.459808234483148],[-73.2201821031849,10.459551234286195],[-73.22025515266694,10.459348130328877],[-73.22040655718457,10.459211010209177],[-73.22065463323223,10.45906817091544],[-73.22102359549687,10.458901738769859],[-73.22120541683829,10.458686967089049],[-73.22122408100331,10.458489695672222],[-73.22123146540102,10.4579994028985],[-73.22108753020309,10.457616331068744],[-73.22088888139965,10.457358683439217],[-73.22040627297484,10.457112228638728],[-73.21962155144823,10.456888879798859],[-73.21903027156382,10.45661821514033],[-73.21815528209434,10.45626905234736],[-73.2178298423638,10.45598714222151],[-73.21763715733087,10.455759403342714],[-73.21757131414927,10.455537987066963],[-73.21762701617217,10.455053803872024],[-73.21779147084307,10.454563934877191],[-73.21776786667259,10.454360570948923],[-73.21767193495708,10.454097215948378],[-73.21740104780585,10.453749679388645],[-73.21696101411204,10.45340168641033],[-73.21666616080874,10.452982330783192],[-73.21646789735722,10.452587152988],[-73.21634184592381,10.452293821958332],[-73.21595065462368,10.451760596040554],[-73.21570355537716,10.45155064958422],[-73.21551032855065,10.451520229573205],[-73.21545000208285,10.451490170348805],[-73.21524553576637,10.451154769481446],[-73.21521599014264,10.450915512478131],[-73.21524784459127,10.450317655638123],[-73.21528440347502,10.450204144721315],[-73.2153814680583,10.450054922136045],[-73.21539389675199,10.4499293882331],[-73.2153519077047,10.44982164397671],[-73.21515326835298,10.449563993422114],[-73.21499054489057,10.449426026613407],[-73.21456799897763,10.44931127463503],[-73.21394529618927,10.449488973077875],[-73.21358903606823,10.44943419345778],[-73.21332960996553,10.449313902526837],[-73.21316199225039,10.44920770532967],[-73.21295265614577,10.449105007320302],[-73.21278402927344,10.448917991935904],[-73.21265439336615,10.448611495423824],[-73.21249176431267,10.448003544431092],[-73.21258496075981,10.447506309377731],[-73.21263846339264,10.447382081991742],[-73.21260525642778,10.447157166444624],[-73.21227257166444,10.44687881894843],[-73.21201694589212,10.446696351262366],[-73.2113075016991,10.446350012928237],[-73.2110078524417,10.446358767355242],[-73.21075094201794,10.446640297693412],[-73.21063481331686,10.446692600845077],[-73.21043184329001,10.446692049581864],[-73.21026255417608,10.446744209995385],[-73.21015090010877,10.446925679426029],[-73.21007294007707,10.447155078647043],[-73.20988376521937,10.447408091073479],[-73.20951053594511,10.447808894285357],[-73.20911842739777,10.44804700456283],[-73.2087505893271,10.448246911576119],[-73.20841693675564,10.44831775516855],[-73.20812697641573,10.448316965469461],[-73.20799875113296,10.44829121814408],[-73.20830322813744,10.447293336292443],[-73.21000402069191,10.445661993612045],[-73.21106331769529,10.44532045636778],[-73.21145571273692,10.444977105225867],[-73.21206529462621,10.44473479915053],[-73.21287840149688,10.444292132981563],[-73.21623268507527,10.44237821256827],[-73.21801921595902,10.44117757278263],[-73.21961714606618,10.440019466305476],[-73.220401430557,10.439504949458756],[-73.22103948233008,10.439449258409423],[-73.22186545396406,10.439594978280505],[-73.22270572539956,10.439812488394162],[-73.22382421316392,10.440194164657612],[-73.22383221084333,10.439890350353249],[-73.22368216443152,10.437630267265826],[-73.22368797012159,10.437140994368075],[-73.22710019083699,10.434788398680107],[-73.22892044875061,10.433721779101564],[-73.23039961665184,10.432831058947922],[-73.23456052975477,10.430262924295679],[-73.2343191374002,10.42983894856687],[-73.23497621021468,10.429437328616785],[-73.23592493115547,10.428868110478714],[-73.23721289678647,10.428449548819687],[-73.23736677828771,10.428897709193695],[-73.23965771554433,10.42819139271755],[-73.24135389387763,10.428108820875886],[-73.24134249597635,10.427863508370455],[-73.24157613370743,10.427871606009248],[-73.24185259175303,10.433094671417606],[-73.24201246128173,10.436553768590446],[-73.24221027955087,10.44216736557047],[-73.24235651890875,10.443627546653472],[-73.24233088354353,10.44487719295176],[-73.24248344338244,10.4451284388334],[-73.243006262083,10.445673855299756],[-73.24311530660478,10.445946679252907],[-73.24303575464137,10.446279494807728],[-73.25211034261014,10.463552858924123],[-73.25290019809765,10.46499066998773],[-73.25293520436011,10.465197536852708],[-73.252724968065,10.46542751959815],[-73.25203180694035,10.46765441057686],[-73.2516556147103,10.46904349837579],[-73.24817936664611,10.471322839760207],[-73.24642063508244,10.472425406770238],[-73.24369495253758,10.474228926262413],[-73.2405716833467,10.47645644682282],[-73.24013599365095,10.476045022070346],[-73.24011473877378,10.476083979146965],[-73.23975308311918,10.476327473640996],[-73.23956405198749,10.476371105424924],[-73.23941414086468,10.476437050905556],[-73.23908352447127,10.475838820127256],[-73.23840469240457,10.476298072882463],[-73.23803353953568,10.476524072919714],[-73.23733942783515,10.477038243433983],[-73.23701495485308,10.4772055491495],[-73.23700788884655,10.477014175331888],[-73.23694837725402,10.47667916856455],[-73.23672658690359,10.476319855575833],[-73.23660962037448,10.476184758139466]],[[-73.23621791870848,10.45623445135406],[-73.23618208291232,10.453522844580435],[-73.23509974560258,10.453533541767882],[-73.23509551251163,10.452290785232638],[-73.23503346690329,10.451795289257053],[-73.23480751560281,10.451004596832794],[-73.23360334537621,10.451102581003308],[-73.23353742478831,10.45095036270139],[-73.23377238822722,10.45076132338846],[-73.23456578965707,10.449250675295342],[-73.23287550873077,10.44791050493126],[-73.23289716655357,10.447815260635686],[-73.2328208256617,10.447691814132144],[-73.23281315974084,10.447679863868121],[-73.23275678017653,10.447708981897854],[-73.23197437108703,10.446479096261298],[-73.22868573678181,10.448478813091512],[-73.22806055216788,10.444250944769049],[-73.22708268556455,10.44339301741964],[-73.2270176398564,10.443518349305325],[-73.2266916456302,10.44324058602255],[-73.22585274198708,10.443865338312857],[-73.22586981036027,10.444717117663926],[-73.22425053891527,10.445554569499482],[-73.2244058815946,10.447886563316832],[-73.22553687349243,10.449406887651731],[-73.2258120715479,10.449380452254966],[-73.22589551697205,10.449358290940266],[-73.22804239798994,10.44914452894828],[-73.2286884975311,10.450268569016323],[-73.22882825456459,10.450220699785657],[-73.22890799639275,10.450249946672505],[-73.22905231926522,10.450444456564101],[-73.2295639256692,10.451310192859067],[-73.23004214960814,10.45207291111026],[-73.23034780904698,10.452503596537523],[-73.23057399122423,10.452706447827921],[-73.23129915993376,10.453524646819115],[-73.23128053088844,10.4535928818113],[-73.23142097267083,10.453782111758306],[-73.2315217921376,10.453997184385777],[-73.23188252767274,10.454494858030719],[-73.23228691076052,10.455143316481696],[-73.23256301469475,10.455662596178174],[-73.23290197233977,10.456141133054896],[-73.23424257493895,10.457085749988305],[-73.23530867282084,10.456421849240234],[-73.23571973795892,10.456297061846781],[-73.23621791870848,10.45623445135406]]]}},
{"type":"Feature","properties":{"Nombre":"UIT_03"},"geometry":{"type":"Polygon","coordinates":[[[-73.22805417138973,10.449165068198493],[-73.22807165869544,10.449163388242951],[-73.22868990601754,10.450267792752534],[-73.22840739329662,10.449781278965947],[-73.22805417138973,10.449165068198493]]]}}
]}
